[{"OBJECT_NAME":"STARLINK-6287","OBJECT_ID":"2023-061AG","EPOCH":"2026-03-09T08:35:57.849216","MEAN_MOTION":15.02534595,"ECCENTRICITY":0.00014249,"INCLINATION":43.0036,"RA_OF_ASC_NODE":186.3692,"ARG_OF_PERICENTER":267.5844,"MEAN_ANOMALY":92.4835,"EPHEMERIS_TYPE":0,"CLASSIFICATION_TYPE":"U","NORAD_CAT_ID":56404,"ELEMENT_SET_NO":999,"REV_AT_EPOCH":15685,"BSTAR":3.8842138e-5,"MEAN_MOTION_DOT":3.21e-6,"MEAN_MOTION_DDOT":0},{"OBJECT_NAME":"CZ-6A DEB","OBJECT_ID":"2024-140BF","EPOCH":"2026-03-09T14:11:25.351296","MEAN_MOTION":14.73413114,"ECCENTRICITY":0.0141768,"INCLINATION":88.9712,"RA_OF_ASC_NODE":279.0945,"ARG_OF_PERICENTER":214.1655,"MEAN_ANOMALY":145.0382,"EPHEMERIS_TYPE":0,"CLASSIFICATION_TYPE":"U","NORAD_CAT_ID":60654,"ELEMENT_SET_NO":999,"REV_AT_EPOCH":8470,"BSTAR":0.0017796,"MEAN_MOTION_DOT":0.0001358,"MEAN_MOTION_DDOT":0}]
